STARLING 4              
1 57386U 23100A   26066.02836485 -.00000009  00000+0  55676-5 0  9994
2 57386  99.5115  59.9711 0007803  83.0949 277.1159 15.06148396144525
STARLINK-34957          
1 65388U 25191K   26068.62320742  .00002162  00000+0  15399-3 0  9996
2 65388  97.6022 301.5273 0001967  62.8793 297.2634 15.05648240 30266
